[{"OBJECT_NAME":"STARLINK-32704","OBJECT_ID":"2025-018W","EPOCH":"2026-03-09T22:04:08.205888","MEAN_MOTION":15.30208948,"ECCENTRICITY":9.442e-5,"INCLINATION":53.1628,"RA_OF_ASC_NODE":308.5448,"ARG_OF_PERICENTER":81.3332,"MEAN_ANOMALY":278.7775,"EPHEMERIS_TYPE":0,"CLASSIFICATION_TYPE":"U","NORAD_CAT_ID":62826,"ELEMENT_SET_NO":999,"REV_AT_EPOCH":6320,"BSTAR":0.00075649015,"MEAN_MOTION_DOT":0.00022119,"MEAN_MOTION_DDOT":0},{"OBJECT_NAME":"CZ-6A DEB","OBJECT_ID":"2024-140RA","EPOCH":"2026-03-09T01:51:18.259488","MEAN_MOTION":15.31763252,"ECCENTRICITY":0.00411794,"INCLINATION":89.1856,"RA_OF_ASC_NODE":296.0787,"ARG_OF_PERICENTER":96.6516,"MEAN_ANOMALY":263.9425,"EPHEMERIS_TYPE":0,"CLASSIFICATION_TYPE":"U","NORAD_CAT_ID":61156,"ELEMENT_SET_NO":999,"REV_AT_EPOCH":8391,"BSTAR":0.0079173326,"MEAN_MOTION_DOT":0.00256788,"MEAN_MOTION_DDOT":0}]
